COMMENT,ORIGINATOR,NORAD_CAT_ID,OBJECT_NAME,OBJECT_TYPE,CLASSIFICATION_TYPE,INTLDES,EPOCH,EPOCH_MICROSECONDS,MEAN_MOTION,ECCENTRICITY,INCLINATION,RA_OF_ASC_NODE,ARG_OF_PERICENTER,MEAN_ANOMALY,EPHEMERIS_TYPE,ELEMENT_SET_NO,REV_AT_EPOCH,BSTAR,MEAN_MOTION_DOT,MEAN_MOTION_DDOT,FILE,TLE_LINE0,TLE_LINE1,TLE_LINE2,OBJECT_ID,OBJECT_NUMBER,SEMIMAJOR_AXIS,PERIOD,APOGEE,PERIGEE,DECAYED
"GENERATED VIA SPACETRACK.ORG API","18 SPCS","55092","SPACEBEE-166","PAYLOAD","U","23001CM","2023-08-25 17:34:09","273792","15.23311475","0.0016637","97.4698","297.4402","120.5642","239.7239","0","999","3568","0.00086162","0.00020492","0","3989051","0 SPACEBEE-166","1 55092U 23001CM  23237.73205178  .00020492  00000-0  86162-3 0  9990","2 55092  97.4698 297.4402 0016637 120.5642 239.7239 15.23311475 35686","2023-001CM","55092","6873.997","94.531","507.299","484.426","0"
"GENERATED VIA SPACETRACK.ORG API","18 SPCS","55092","SPACEBEE-166","PAYLOAD","U","23001CM","2023-08-26 03:01:41","996928","15.23329861","0.0016601","97.4699","297.8325","119.1648","241.1252","0","999","3574","0.00094581","0.00022519","0","3989608","0 SPACEBEE-166","1 55092U 23001CM  23238.12618052  .00022519  00000-0  94581-3 0  9999","2 55092  97.4699 297.8325 0016601 119.1648 241.1252 15.23329861 35743","2023-001CM","55092","6873.942","94.530","507.219","484.396","0"
"GENERATED VIA SPACETRACK.ORG API","18 SPCS","55092","SPACEBEE-166","PAYLOAD","U","23001CM","2023-08-26 17:13:00","393024","15.23355873","0.0016642","97.47","298.4206","117.3678","242.9254","0","999","3583","0.00096226","0.00022932","0","3989772","0 SPACEBEE-166","1 55092U 23001CM  23238.71736566  .00022932  00000-0  96226-3 0  9992","2 55092  97.4700 298.4206 0016642 117.3678 242.9254 15.23355873 35832","2023-001CM","55092","6873.864","94.528","507.168","484.289","0"
"GENERATED VIA SPACETRACK.ORG API","18 SPCS","55092","SPACEBEE-166","PAYLOAD","U","23001CM","2023-08-26 17:13:00","393024","15.23355873","0.0016642","97.47","298.4206","117.3678","242.9254","0","999","3583","0.00096226","0.00022932","0","3989878","0 SPACEBEE-166","1 55092U 23001CM  23238.71736566  .00022932  00000-0  96226-3 0  9992","2 55092  97.4700 298.4206 0016642 117.3678 242.9254 15.23355873 35832","2023-001CM","55092","6873.864","94.528","507.168","484.289","0"
"GENERATED VIA SPACETRACK.ORG API","18 SPCS","55092","SPACEBEE-166","PAYLOAD","U","23001CM","2023-08-27 02:40:32","162304","15.23373143","0.0016633","97.4701","298.813","115.934","244.3613","0","999","3589","0.00095627","0.000228","0","3990390","0 SPACEBEE-166","1 55092U 23001CM  23239.11148336  .00022800  00000-0  95627-3 0  9997","2 55092  97.4701 298.8130 0016633 115.9340 244.3613 15.23373143 35894","2023-001CM","55092","6873.812","94.527","507.110","484.244","0"
"GENERATED VIA SPACETRACK.ORG API","18 SPCS","55092","SPACEBEE-166","PAYLOAD","U","23001CM","2023-08-27 16:51:49","55040","15.23400639","0.0016675","97.4703","299.4011","114.0685","246.2298","0","999","3598","0.00096054","0.00022921","0","3990698","0 SPACEBEE-166","1 55092U 23001CM  23239.70265110  .00022921  00000-0  96054-3 0  9991","2 55092  97.4703 299.4011 0016675 114.0685 246.2298 15.23400639 35980","2023-001CM","55092","6873.729","94.525","507.056","484.132","0"
"GENERATED VIA SPACETRACK.ORG API","18 SPCS","55092","SPACEBEE-166","PAYLOAD","U","23001CM","2023-08-28 02:19:19","814304","15.23417239","0.0016659","97.4702","299.7936","112.6638","247.6363","0","999","3604","0.00092416","0.00022059","0","3990855","0 SPACEBEE-166","1 55092U 23001CM  23240.09675711  .00022059  00000-0  92416-3 0  9997","2 55092  97.4702 299.7936 0016659 112.6638 247.6363 15.23417239 36042","2023-001CM","55092","6873.679","94.524","506.995","484.093","0"
"GENERATED VIA SPACETRACK.ORG API","18 SPCS","55092","SPACEBEE-166","PAYLOAD","U","23001CM","2023-08-28 21:14:20","138784","15.23451989","0.0016633","97.4699","300.5781","110.2566","250.0461","0","999","3616","0.00090603","0.00021645","0","3991628","0 SPACEBEE-166","1 55092U 23001CM  23240.88495531  .00021645  00000-0  90603-3 0  9990","2 55092  97.4699 300.5781 0016633 110.2566 250.0461 15.23451989 36162","2023-001CM","55092","6873.575","94.522","506.873","484.007","0"
"GENERATED VIA SPACETRACK.ORG API","18 SPCS","55092","SPACEBEE-166","PAYLOAD","U","23001CM","2023-08-29 09:50:59","494848","15.23473533","0.0016586","97.4697","301.101","108.6428","251.6612","0","999","3624","0.00079875","0.00019079","0","3992087","0 SPACEBEE-166","1 55092U 23001CM  23241.41041082  .00019079  00000-0  79875-3 0  9994","2 55092  97.4697 301.1010 0016586 108.6428 251.6612 15.23473533 36240","2023-001CM","55092","6873.510","94.521","506.775","483.975","0"
"GENERATED VIA SPACETRACK.ORG API","18 SPCS","55092","SPACEBEE-166","PAYLOAD","U","23001CM","2023-08-29 09:50:59","494848","15.23473533","0.0016586","97.4697","301.101","108.6428","251.6612","0","999","3624","0.00079875","0.00019079","0","3992439","0 SPACEBEE-166","1 55092U 23001CM  23241.41041082  .00019079  00000-0  79875-3 0  9994","2 55092  97.4697 301.1010 0016586 108.6428 251.6612 15.23473533 36240","2023-001CM","55092","6873.510","94.521","506.775","483.975","0"
"GENERATED VIA SPACETRACK.ORG API","18 SPCS","55092","SPACEBEE-166","PAYLOAD","U","23001CM","2023-08-30 15:48:00","447264","15.23525396","0.001652","97.4692","302.3432","104.6857","255.6212","0","999","3643","0.00083689","0.00020026","0","3993212","0 SPACEBEE-166","1 55092U 23001CM  23242.65833851  .00020026  00000-0  83689-3 0  9996","2 55092  97.4692 302.3432 0016520 104.6857 255.6212 15.23525396 36432","2023-001CM","55092","6873.354","94.518","506.574","483.864","0"
"GENERATED VIA SPACETRACK.ORG API","18 SPCS","55092","SPACEBEE-166","PAYLOAD","U","23001CM","2023-08-30 15:48:00","447264","15.23525396","0.001652","97.4692","302.3432","104.6857","255.6212","0","999","3643","0.00083689","0.00020026","0","3993321","0 SPACEBEE-166","1 55092U 23001CM  23242.65833851  .00020026  00000-0  83689-3 0  9996","2 55092  97.4692 302.3432 0016520 104.6857 255.6212 15.23525396 36432","2023-001CM","55092","6873.354","94.518","506.574","483.864","0"
"GENERATED VIA SPACETRACK.ORG API","18 SPCS","55092","SPACEBEE-166","PAYLOAD","U","23001CM","2023-08-31 02:50:03","12288","15.235452","0.0016512","97.4691","302.8012","103.0094","257.2988","0","999","3650","0.00087114","0.00020863","0","3994074","0 SPACEBEE-166","1 55092U 23001CM  23243.11809042  .00020863  00000-0  87114-3 0  9999","2 55092  97.4691 302.8012 0016512 103.0094 257.2988 15.23545200 36509","2023-001CM","55092","6873.294","94.516","506.509","483.810","0"
"GENERATED VIA SPACETRACK.ORG API","18 SPCS","55092","SPACEBEE-166","PAYLOAD","U","23001CM","2023-09-01 02:28:41","166336","15.23585337","0.0016543","97.4687","303.782","99.7762","260.5344","0","999","3665","0.00087136","0.00020894","0","3994254","0 SPACEBEE-166","1 55092U 23001CM  23244.10325424  .00020894  00000-0  87136-3 0  9994","2 55092  97.4687 303.7820 0016543  99.7762 260.5344 15.23585337 36652","2023-001CM","55092","6873.174","94.514","506.409","483.668","0"
"GENERATED VIA SPACETRACK.ORG API","18 SPCS","55092","SPACEBEE-166","PAYLOAD","U","23001CM","2023-09-01 02:28:41","166336","15.23585337","0.0016543","97.4687","303.782","99.7762","260.5344","0","999","3665","0.00087136","0.00020894","0","3994767","0 SPACEBEE-166","1 55092U 23001CM  23244.10325424  .00020894  00000-0  87136-3 0  9994","2 55092  97.4687 303.7820 0016543  99.7762 260.5344 15.23585337 36652","2023-001CM","55092","6873.174","94.514","506.409","483.668","0"
"GENERATED VIA SPACETRACK.ORG API","18 SPCS","55092","SPACEBEE-166","PAYLOAD","U","23001CM","2023-09-01 15:05:16","549728","15.23609577","0.0016534","97.4685","304.3049","98.2554","262.0559","0","999","3673","0.0009377","0.00022511","0","3995056","0 SPACEBEE-166","1 55092U 23001CM  23244.62866377  .00022511  00000-0  93770-3 0  9997","2 55092  97.4685 304.3049 0016534  98.2554 262.0559 15.23609577 36730","2023-001CM","55092","6873.101","94.512","506.330","483.602","0"
"GENERATED VIA SPACETRACK.ORG API","18 SPCS","55092","SPACEBEE-166","PAYLOAD","U","23001CM","2023-09-02 10:00:08","243712","15.23644538","0.0016473","97.4681","305.0893","95.7513","264.5603","0","999","3685","0.00090738","0.00021801","0","3995476","0 SPACEBEE-166","1 55092U 23001CM  23245.41676208  .00021801  00000-0  90738-3 0  9999","2 55092  97.4681 305.0893 0016473  95.7513 264.5603 15.23644538 36856","2023-001CM","55092","6872.996","94.510","506.183","483.539","0"
"GENERATED VIA SPACETRACK.ORG API","18 SPCS","55092","SPACEBEE-166","PAYLOAD","U","23001CM","2023-09-02 10:00:08","243712","15.23644538","0.0016473","97.4681","305.0893","95.7513","264.5603","0","999","3685","0.00090738","0.00021801","0","3995624","0 SPACEBEE-166","1 55092U 23001CM  23245.41676208  .00021801  00000-0  90738-3 0  9999","2 55092  97.4681 305.0893 0016473  95.7513 264.5603 15.23644538 36856","2023-001CM","55092","6872.996","94.510","506.183","483.539","0"
"GENERATED VIA SPACETRACK.ORG API","18 SPCS","55092","SPACEBEE-166","PAYLOAD","U","23001CM","2023-09-02 16:18:25","80480","15.23657855","0.0016436","97.4678","305.3509","94.9607","265.3506","0","999","3689","0.00087141","0.00020939","0","3995906","0 SPACEBEE-166","1 55092U 23001CM  23245.67945695  .00020939  00000-0  87141-3 0  9991","2 55092  97.4678 305.3509 0016436  94.9607 265.3506 15.23657855 36894","2023-001CM","55092","6872.956","94.509","506.117","483.524","0"
"GENERATED VIA SPACETRACK.ORG API","18 SPCS","55092","SPACEBEE-166","PAYLOAD","U","23001CM","2023-09-03 03:20:24","17568","15.23687519","0.0016384","97.4676","305.8087","93.3366","266.9746","0","999","3696","0.0011762","0.0002834","0","3996447","0 SPACEBEE-166","1 55092U 23001CM  23246.13916687  .00028340  00000-0  11762-2 0  9991","2 55092  97.4676 305.8087 0016384  93.3366 266.9746 15.23687519 36966","2023-001CM","55092","6872.866","94.508","505.992","483.471","0"
